{"type": "Topology", "arcs": [[[4618430, 1208744], [-3668, -3170], [-3078, 8354], [6746, -5184]], [[3705556, 614638], [-186779, 70419], [10867, 20263], [-8415, 3131], [-9583, 17670], [15, 24943], [-12539, 14560], [-20393, 6665], [-15654, -7555], [-14724, 6060], [-8468, -11749], [-19659, 6649], [-7040, -11339], [-9614, 2982], [-1312, -3792], [-44112, 15775], [-8091, -760], [-5299, -8503], [-39661, 3512], [-6938, 6325], [-9103, -3927], [-27626, 18978], [-18000, -6508], [-22772, 4635], [-13542, -3162], [-6866, -13643], [5831, -8355], [-25553, -4547], [-75628, 61771], [-21910, 11224], [-13059, 15], [-4958, 18078], [-17615, 1453], [-7260, 15565], [2579, 24509], [-23535, 11082], [-22571, 101], [-9538, 13342], [-4314, -3037]], [[2982717, 907468], [-3347, -2369]], [[2979370, 905099], [-1403, -2407]], [[2977967, 902692], [-970, -7688]], [[2976997, 895004], [-660, -1266]], [[2976337, 893738], [-585, -829]], [[2975752, 892909], [-5814, -3478]], [[2969938, 889431], [-5333, -980]], [[2964605, 888451], [-1043, -845]], [[2963562, 887606], [-4931, 2654]], [[2958631, 890260], [424, 795]], [[2959055, 891055], [719, 3721]], [[2959774, 894776], [-2178, 3430]], [[2957596, 898206], [-3309, 4270]], [[2954287, 902476], [398, 6238], [-10028, 3385], [1677, 18353]], [[2946334, 930452], [-5354, 754]], [[2940980, 931206], [-9503, 3240], [-56, 8323]], [[2931421, 942769], [-220, 934]], [[2931201, 943703], [-4952, 3873]], [[2926249, 947576], [-1708, 428]], [[2924541, 948004], [-728, -9]], [[2923813, 947995], [-3964, -342]], [[2919849, 947653], [-7735, 6961]], [[2912114, 954614], [-2933, 5]], [[2909181, 954619], [-4319, -1465]], [[2904862, 953154], [-2474, 42]], [[2902388, 953196], [-1937, -1513]], [[2900451, 951683], [-304, 2004]], [[2900147, 953687], [-3785, -42]], [[2896362, 953645], [-13840, 1158]], [[2882522, 954803], [-6889, 218]], [[2875633, 955021], [-7287, -4789]], [[2868346, 950232], [-162, -1314]], [[2868184, 948918], [-9289, -5422], [867, 3557]], [[2859762, 947053], [-7420, 1289]], [[2852342, 948342], [-25709, 8872]], [[2826633, 957214], [-1278, 596]], [[2825355, 957810], [-13221, 1223]], [[2812134, 959033], [-3869, 3350]], [[2808265, 962383], [-449, 502850]], [[2807816, 1465233], [795903, 4], [12245, 15726], [30663, 14600], [11559, 12145], [20012, -5936], [58655, 9656], [15590, -12799], [30679, 3168], [25831, -10734], [3467, -10368], [22949, -9444], [484, -16184], [11413, -7713], [15179, 22490], [16097, 8121], [7129, -8810], [23187, 5222], [6635, 19949], [-11837, 14477], [2521, 6001], [40327, 13484], [12248, 11931], [7060, -8973], [3528, 6942], [13654, -9436], [12895, 5431], [22882, -4794], [6608, 8277]], [[4025379, 1537666], [5692, 967]], [[4031071, 1538633], [9838, 2804]], [[4040909, 1541437], [5932, 213]], [[4046841, 1541650], [8740, 7792], [5771, -2061]], [[4061352, 1547381], [-3995, -4260], [4316, 3641], [1688, -5219], [173, 6594], [2984, -8814], [-3295, -27297], [8538, -10493], [-2990, -20715], [-8189, -2964], [6315, -472], [-24577, -41896], [2452, -18748], [-9607, -43281], [-24106, -58215], [-4326, -23295], [10209, -19010], [-11318, -24937], [-3953, -30432], [-18327, -36932], [-20664, -18303], [-801, -41536], [-20428, -8361], [-13059, -17414], [-23668, 4684], [-3191, -8251], [13309, 91], [-574, 3751], [12305, -4267], [-30141, -9708], [-8402, -4670], [-1485, -3502], [-5274, 4230], [2968, -4682], [2200, -107], [1846, 978], [-14285, -16808], [-5305, 11773], [572, -11604], [-6458, 1962], [-3969, -4000], [5921, -1176], [-5888, -2344], [5802, -3756], [1354, 7262], [1578, -5890], [3888, 9222], [260, -10650], [-13554, -16806], [5904, 10655], [-5359, 1469], [-6697, -8440], [6283, -5546], [-8727, -16077], [-15851, -4735], [706, 8569], [-3871, -4551], [-2945, 3528], [3992, 4142], [-4557, -3504], [753, -4734], [-3301, 10943], [-2758, -4296], [-2401, 582], [-1779, -1649], [-1767, 3495], [-662, -377], [-370, -772], [743, -452], [327, 1255], [585, -2667], [1690, -871], [5302, 1713], [-5275, -12068], [7230, 7353], [7200, -6483], [-9763, -7639], [13416, 8249], [-1380, -8327], [4223, -1049], [1080, 8729], [2018, -4506], [-4157, -19889], [-9708, 5091], [6451, -5457], [-2218, -2639], [-19536, 2978], [13800, -5217], [7763, 518], [1410, 3783], [463, -5913], [-3649, -10986], [-8118, 5204], [-4973, -4072], [1933, -4656], [8430, 3584], [-741, -4071], [-15339, -2243], [11063, -2215], [-24374, -23012], [-611, -17723], [-4734, -4446], [1203, 4672], [-7485, -1577], [-1644, -4784], [6673, 1775], [4242, -5951], [-15492, -25819], [8422, -21920], [-5761, -866], [-2516, 9217], [-7986, -4631], [3047, -8571], [-15210, 1983], [4792, -8703], [-11940, -10176], [-7169, -24210], [-12973, -18960], [-9934, 2045], [5989, -9864], [-8691, -8942], [-167, -37583], [-24378, -64768], [3986, -13935], [-7214, -2921], [13236, -5806], [4697, -12099], [-10783, -1547], [3267, -22733]], [[3877545, 1080734], [8718, -4021], [3486, 5334], [-12204, -1313]], [[3846169, 1017954], [-6439, 4046], [1519, -7059], [4920, 3013]], [[3647816, 833226], [-27838, 19466], [-31305, -18513], [-4036, -33768], [8816, -11355], [3098, 4174], [7250, -17632], [8968, -2495], [4687, 7469], [-1764, 25959], [6447, -644], [408, 17773], [6096, 6953], [19173, 2613]], [[2804461, 559545], [-263, 230745], [51, 176789], [1684, -3537]], [[2805933, 963542], [2332, -1159]], [[2808265, 962383], [3869, -3350]], [[2825355, 957810], [1278, -596]], [[2852342, 948342], [7420, -1289]], [[2868184, 948918], [162, 1314]], [[2875633, 955021], [6889, -218]], [[2896362, 953645], [3785, 42]], [[2900451, 951683], [1937, 1513]], [[2904862, 953154], [4319, 1465]], [[2909181, 954619], [2933, -5]], [[2919849, 947653], [3964, 342]], [[2924541, 948004], [1708, -428]], [[2926249, 947576], [4952, -3873]], [[2931201, 943703], [220, -934]], [[2940980, 931206], [5354, -754]], [[2954287, 902476], [3309, -4270]], [[2959774, 894776], [-719, -3721]], [[2958631, 890260], [4931, -2654]], [[2964605, 888451], [5333, 980]], [[2975752, 892909], [585, 829]], [[2976997, 895004], [970, 7688]], [[2977967, 902692], [1403, 2407]], [[2979370, 905099], [3347, 2369]], [[3705556, 614638], [-20143, -5278], [-9792, -12725], [-19237, -9036], [-119535, -3554], [-50139, -14434], [-90508, -67931], [4238, 4041], [-37431, -10956], [-33915, 1093], [8055, -21170], [18602, 11278], [-4688, -21920], [5160, -5005], [-10879, -7570], [-24103, 29932], [-9992, 2422], [-11241, -9642], [-15565, 24285], [-15886, -1203], [-12301, 12278], [-11167, 1971], [6247, 4267], [-1810, 8663], [13255, 3531], [-5994, 13827], [-23422, 1035], [-7079, -15152], [5050, -3510], [-10455, 1923], [-19252, -10663], [-28550, 19301], [16277, -6447], [10849, 1929], [19530, 20356], [-1895, 11882], [-17367, 18703], [-41901, -25166], [-14524, -1363], [11653, -5935], [21409, 4452], [1415, -9025], [-8320, -4125], [4907, -1380], [-24362, -1636], [-39212, -19415], [-17028, -19589], [-31216, -18403], [-19747, 10175], [-12363, -1249], [-15213, 11542], [-22320, 4573], [-48511, 25580], [-22672, -4200], [-21630, 11327], [-18749, 2511], [-14039, -6008], [2480, -9316], [-25210, 1959], [1778, 6703], [-9682, 9908], [-32955, 16466]], [[3369937, 489356], [-7515, -3301], [-8074, 5176], [15589, -1875]], [[3258230, 529707], [-23785, -4852], [3145, 12083], [20640, -7231]], [[3244323, 509803], [-24820, 3505], [17445, 6817], [7375, -10322]], [[4046841, 1541650], [-5932, -213]], [[4031071, 1538633], [-5692, -967]], [[2807816, 1465233], [11, 300273]], [[2807827, 1765506], [-300034, -49]], [[2507793, 1765457], [213, 945236]], [[2508006, 2710693], [32243, -20595], [30535, -1748], [40971, -14451], [11925, -11679], [-287, -13466], [8262, -15589], [23923, -8111], [16979, -13724], [17508, -3248], [18261, -14396], [38019, 3669], [44382, 21254], [7244, 11669], [5719, 35051], [33846, 50194], [-1041, 8803], [14670, 33341], [-5939, 15785], [6130, 25932], [23246, 63407], [-14153, 53644], [7343, 38542], [-13185, 23742], [5609, 29212], [17211, 30205], [-11223, 27335], [15674, 14326], [15384, 25994], [-18432, 7457], [-11750, -4001], [25852, 57451], [5858, 2899], [623, -20962], [1709, 9420], [7989, 3177], [-7006, 9360], [17779, 57697], [1282, 42010], [18223, 3329], [12325, 20699], [9267, 2062], [7834, -6148], [-12716, -22935], [10712, 11022], [19683, -20603], [749, -20436], [7511, -10303], [-4183, -9493], [2953, -36901], [11824, -8740], [12369, 4074], [6916, -8112], [7661, 457], [-16535, -19050], [-14, -17826], [16880, -4166], [5578, -17246], [13530, -6021], [-8711, -28722], [19278, 5626], [-4547, -10685], [1722, -30967], [8232, -16301], [-6645, -33225], [14932, -26002], [10001, -38465], [10335, -8287], [14484, 77], [13904, 9991], [2776, 12044], [14698, -4695], [17317, 14128], [8004, -9397], [-921, -10013], [6406, 238], [-3229, -11702], [7415, -9169], [8130, 2158], [841, -4812], [12756, -2043], [4588, -13079], [27352, -8658], [5261, -12375], [6958, 414], [-11803, -18802], [2955, -11201], [7611, 2465], [1671, -5013], [-12767, -18543], [9428, -10831], [3457, -34020], [11955, -16563], [-3561, -9855], [4762, -10203], [-7073, -6162], [-806, -12098], [31474, -34460], [5436, -13657], [6967, 6927], [10877, -2539], [-6825, -16103], [18379, -33712], [-4538, -15555], [4036, 3987], [8087, -13815], [-13285, -59646], [17318, -22881], [14851, -5280], [-4805, -36527], [16433, -18180], [31375, -11105], [11466, -11883], [7546, -519], [5823, 12647], [10984, -24018], [31491, 131], [-1992, 9882], [25026, -50601], [8936, -1286], [-837, 13462], [7121, -306], [9428, -19866], [16228, 2645], [3184, -5971], [14819, -3524], [-2956, -6851], [12195, -11738], [11342, 2431], [-1394, 7904], [11086, -738], [1977, -13091], [9529, 1896], [-478, -10364], [9613, 4637], [16086, -29783], [-17401, 11487], [748, -6079], [-8344, 3845], [3492, -5358], [-5304, -9093], [17874, -20534], [-5349, -2549], [5577, -5937], [20304, -2705], [-3187, -8889], [7469, 1599], [13810, -8688], [-428, -8490], [-590, 2504], [-6404, -2036], [6235, -234], [-4124, -5343], [4015, -4275], [-3483, -4315], [11942, 1139], [1863, -11943], [-4093, -800], [6186, -2620], [-4777, -7992], [10534, 1374], [-2217, -4198], [6977, -5828], [4120, 6165], [-4595, -10828], [4106, -10289], [-5805, -2881], [4377, -15398], [13187, -35579], [6099, -7342], [10842, -1646], [-1460, -6504], [5897, 5432], [23568, -27900], [-13389, 31838], [5900, 1291], [-5692, 854], [4100, 13592], [8705, 5921], [13443, -23439], [32022, -19974], [-586, 3881], [5678, -9567], [4900, 5766], [-6449, 10941], [5695, -1404], [-6007, 6164], [3200, 8566], [8384, -2874], [-1845, -9617], [3900, -1243], [79, 10756], [8619, -9975], [-2939, -7231], [-7966, 4432], [3528, -9917], [4528, 1030], [-1758, -7304], [7669, 10704], [-621, -10981], [5743, -4524], [-8551, -44461], [7873, -10735], [-6055, -6687], [10354, -17756], [-8143, -2949], [8820, -4221], [-4390, -149], [2298, -6699], [7733, 7682], [-924, -7882], [5008, 6736], [5116, -1660], [1370, -6496], [8151, -3443], [5116, -14447], [14510, -3871], [-1345, -4550], [12207, -8709], [1127, -8969], [558, 5083], [5029, -4098], [-5328, 7498], [10344, -3726], [-4288, -1571], [4436, -6828], [2824, 7756], [10880, -6839], [-7190, 12486], [11974, -4324], [-1446, -6477], [4880, 7204], [684, -11430], [6445, -4737], [3989, 535], [-2668, -4692], [2984, 2479], [734, 4424], [5709, -9071], [10061, -28490], [42415, -29104], [6551, -27352], [9935, -6218], [-8600, -5321], [6794, 2172], [10747, -8633], [9144, 2611], [10052, -4988], [996, -13741], [-10062, -6322], [13260, 6036], [-9443, -11979], [1651, -13019], [9759, -8754], [-3931, -4388], [8380, -1452], [-2136, -13946], [5721, 3769], [-991, 12333], [7345, -12557], [7244, 65], [-13096, -38024], [5858, -6608], [-2126, -26335], [5266, -15959], [-2662, -419], [-3267, -8894], [-3098, 240], [394, -8337], [-4042, -1181], [11956, -8727], [-12214, -4873], [1546, -7255], [7915, -161], [-879, -6344], [-5398, 3140], [1574, -8366], [9092, -6346], [-10721, -8302], [13795, 9313], [-268, -10847], [5243, 1075], [7686, -11652], [-1903, -12911], [8424, 186], [-1551, 6012], [4834, 710], [-3043, -6696], [4116, -7001], [-6012, -2222], [16812, -37686]], [[4062559, 1621661], [-13396, -30417], [2574, 34410], [10822, -3993]], [[4054737, 1662296], [-4053, -33516], [-6656, 30259], [10709, 3257]], [[4002906, 1807752], [10124, 22860], [11, 10066], [-5923, 2395], [24170, 27824], [-11508, 12741], [14570, 11797], [563, -19639], [9010, -11288], [-25245, -55367], [-3024, -23231], [-6257, 2327], [-6491, 19515]], [[4028644, 1656975], [-4184, -1776], [-8670, 12706], [-180, 6224], [5278, 3599], [-5, 6007], [7761, -26760]], [[3839416, 1989221], [-11683, -2046], [-6871, 11044], [-8207, 4635], [-1513, 5249], [-5307, 8161], [3763, 3653], [16629, -8905], [5177, 5766], [-954, -12584], [8966, -14973]], [[3763967, 2135645], [-7783, -5435], [-375, 14276], [8158, -8841]], [[3744301, 2193091], [-2527, -4943], [-3908, 2357], [6435, 2586]], [[3738085, 2198652], [-5891, -1039], [426, 5626], [5465, -4587]], [[3700887, 2151770], [-6025, -9257], [3163, 17424], [2862, -8167]], [[3618356, 2317026], [-6110, -4102], [3682, 8580], [2428, -4478]], [[3614090, 2335798], [-9883, -3530], [1168, 5991], [-6217, -2211], [4327, 13293], [10605, -13543]], [[3606152, 2329957], [-2981, -2554], [-644, 4479], [3625, -1925]], [[3604682, 2358378], [-1668, -8889], [-4904, -957], [1335, 4269], [-2795, -4573], [1920, 9786], [6112, 364]], [[3555742, 2364965], [-2123, -5004], [-1210, 7787], [3333, -2783]], [[3396261, 2453784], [-3762, -6816], [-6708, 5258], [10470, 1558]], [[3377261, 2489575], [-11404, -1503], [-726, 9307], [12130, -7804]], [[3358697, 2502860], [-1869, -4469], [-509, 10009], [2378, -5540]], [[3331628, 2536929], [-1439, 8757], [8252, -4739], [-2997, -7554], [8286, -10082], [-5722, -7573], [-7701, 1510], [-15338, 23229], [16659, -3548]], [[2987974, 3427576], [-9361, -5265], [-11064, 2491], [20425, 2774]], [[2942305, 3347920], [-6550, -8754], [-9478, 7030], [8200, 7369], [7828, -5645]], [[2940527, 3304024], [-9030, 393], [7024, 3668], [2006, -4061]], [[2935630, 3294495], [-12737, -5839], [-3959, 10309], [9324, 6694], [7372, -11164]], [[2927135, 3354555], [-2904, -7507], [-7597, 5084], [2672, 6160], [6774, 917], [1055, -4654]], [[2679101, 2712090], [-11615, -2368], [-4935, 9368], [-7161, -6570], [3178, -5045], [-5372, 718], [-182, -9676], [-7541, 2423], [-6280, -8820], [-8303, -92], [-7901, 9731], [15312, 17101], [24392, 7213], [12834, -5991], [3574, -7992]], [[2655143, 2655549], [-3800, -4351], [-4044, 5648], [9602, 3840], [434, 6495], [8351, -11392], [-10543, -240]], [[1608022, 1196437], [51, 568845], [1199754, 224]], [[2807827, 1765506], [-1894, -801964]], [[2804461, 559545], [-30329, -549], [-26599, 14247], [-27561, 38814], [-12772, 4498], [-15237, 16370], [-10074, 14006], [5147, 6926], [-12151, 15543], [17292, 11786], [822, 19210], [-19590, 42556], [-27819, 32968], [-32171, 24266], [-29240, 12890], [-13139, -2317], [-10916, -9912], [-33100, -2212], [-9520, 3986], [6933, 10585], [27555, 16938], [7657, 31787], [-3961, 24919], [2222, -6064], [6606, 1848], [-30065, 34829], [-16333, 33792], [-21472, -36848], [-2256, -27055], [-14029, -27583], [3393, -6100], [-12116, -5346], [-21466, 7011], [-24885, -13926], [-17260, 1415], [-11839, -7714], [-6107, 5507], [11919, 11616], [7249, 23614], [26287, -92], [9846, -5985], [7382, 4343], [6068, 29236], [-2625, 17868], [-6804, -2032], [8515, 14760], [-5045, 17648], [7242, 626], [7809, 25246], [37710, 31796], [-16633, 29258], [18968, 13461], [2342, -5024], [3018, 6679], [-10233, 10909], [-5119, 22836], [4357, 1999], [-10689, 6185], [-8721, 28043], [3615, -58454], [-14509, 4460], [-18944, -17539], [-9146, -30846], [-14722, -22192], [-62062, -23848], [-48044, -45982], [-2007, -18335], [-3585, 6372], [-12401, -4951], [510, -12049], [-4627, 3328], [-3718, -4965], [3745, -8606], [-10568, -5788], [19487, 2471], [2593, 4868], [-4658, -11267], [4457, -13174], [-5006, -2601], [-16237, 14540], [-17327, -8351], [-36639, 39260], [-14324, -3637], [9713, 15893], [1506, -6932], [13252, -2344], [-5632, -3023], [6817, -8980], [15101, 2913], [-8507, 953], [-2661, 9620], [-1585, -8783], [-4301, 32751], [-10499, 11742], [1094, 16880], [-42193, 35502], [1482, 18983], [-4302, 10770], [-14375, 9520], [6080, 360], [-1694, 5532], [-14380, 1332], [8240, -2137], [-991, -6245], [-17996, 10051], [-8200, -3124], [-1041, 5055], [-6591, 4943], [-1702, 5113], [324, -8265], [7969, -4086], [-3011, -5118], [-9808, 15616], [-6236, -1237], [3396, 9190], [-14135, 5585], [7797, 6822], [-7818, 11722], [2027, 1292], [12434, -1563], [-5212, 123], [4732, -2272], [-349, -4861], [2522, 546], [6852, 9698], [-2404, 11906], [-20922, 13310], [2909, -3008], [-23721, -7094], [1782, 14254], [8426, 1067], [-12968, 15455], [-5167, -2986], [-1301, 5798], [-7761, 320], [-1223, 9881], [-7463, 1658], [-3880, -8233], [-8066, 6948], [-7768, -4147], [9262, -6453], [-32307, 3605], [-3891, -3873], [-3741, 8176], [-34175, 17768], [-21526, 1440], [-8492, -3578], [2682, -5937], [-27262, 282], [-44204, 30702], [-60994, 25660], [-34250, -14197], [-65395, 2909], [-115084, -11053]], [[2521378, 781004], [-9408, -6288], [-29972, 5116], [-28038, -22186], [-8970, 7656], [-16153, 2443], [-7854, -6000], [-27691, 1741], [-14881, -4749], [-17229, 18751], [5449, 12770], [72606, 16962], [30817, 1805], [-5191, -7124], [7394, -2170], [-6578, -7155], [20242, 174], [-2595, -11905], [18635, 12678], [19417, -12519]], [[2446065, 915413], [-3026, -3680], [988, 7123], [2038, -3443]], [[2162657, 992999], [-10073, -5076], [2503, 8178], [7570, -3102]], [[1608012, 2877196], [10, -1680759]], [[1608022, 1196437], [-68707, -29230], [-98831, -27716], [-65317, -5185], [-46965, 7610], [-25213, -5827], [-41895, -25869], [-50588, -17962], [-21214, -14401], [-57539, -14473], [-13746, -15856], [-12517, -38245], [-20161, -13958], [-1026, -9705], [-22987, -14490], [-16284, 4424], [-20838, -12074], [-2918, 11226], [-11117, 4773], [-4683, -4567], [-35719, 948], [-4716, -6858], [-20733, 4790], [-8689, -8723], [-16374, -1645], [-11257, 18790], [-21113, -7975], [-42800, 9360], [-18474, -6216], [-58366, -864], [-15690, -8564], [-39441, 4852], [-22579, -6011], [-21891, -15111], [-14034, -15449], [11915, -9811], [-16054, 1390], [288, -8564], [-12876, 695], [-3536, -8262], [-18538, 7578], [-15732, -406], [-15644, -8270], [2636, -6343], [-5933, -4789], [-28224, -10386], [-3672, -15595], [-22810, -2339], [1932, -8303], [-23277, 1000], [-1294, 6948], [-2940, -9214], [-7129, -911], [17297, -6303], [-7296, -2035], [-26266, 8493], [-7436, -8999], [-27877, 11052], [6328, 2467], [7002, -2240], [-1056, 5359], [-8605, -253], [-3493, -2423], [-816, -5018], [-36922, 2453], [-3562, -4498], [-15295, 4962], [-13790, -4611], [-36908, 18091], [-25915, 3771], [-5495, 12139], [-36933, 29874], [-23246, 10587], [-17652, -553], [779, 5609], [-4268, -11043], [-11024, 12306], [-2002, 72211], [20298, -12012], [16053, 1164], [29902, 31731], [-5802, 65537], [1957, 6717], [8272, 7898], [-6953, -9794], [7143, -16921], [-4608, 17199], [8066, -3061], [3049, 4999], [-5899, 3194], [2483, 23084], [-5860, 6758], [8982, 7218], [-4233, 13813], [11419, 5396], [1421, -4410], [-1555, 8059], [12894, 7150], [-20023, -9548], [-4942, -6485], [2730, 20571], [-6589, 19464], [-62784, 114346], [-10310, 46139], [4273, 55531], [-12549, 37680], [-29591, 33216], [3649, 11943], [-7897, 17067], [-35898, 38351], [-6931, 26060], [7626, 17007], [-21651, 44956], [-80888, 107907], [11369, -9010], [2930, 22581], [2744, -32131], [6587, -6500], [-5619, 10192], [5012, 8770], [-2276, 19518], [14285, -34644], [-2963, -11314], [6025, 19754], [2101, -29449], [4888, -3220], [2345, 14293], [3346, -21118], [2279, 7278], [12742, -218], [6864, 9539], [-220, 17309], [-8291, 8311], [-10970, 3473], [-6724, 11664], [-4051, 368], [-10787, 38790], [-309, -7614], [-5487, 6072], [9661, 22143], [1415, -10449], [23662, -27080], [-6193, -16637], [329, -15480], [11007, 2095], [6393, 23369], [9565, -39738], [10393, -12408], [16086, 15382], [-4299, 32919], [7064, 144], [153, 9440], [-26265, 26922], [-18712, 44495], [-15108, 15086], [2594, 9417], [-4748, 5047], [6245, 2736], [-8936, -794], [571, 11261], [-21629, 26186], [-1679, 26018], [14174, 44916], [24622, 29678], [-1765, 35676], [6571, 16528], [-7093, 19979], [-8476, 3909], [-1641, 13836], [36984, 72762], [16709, 3657], [-11075, -33955], [3555, -17702], [6265, 2578], [-5636, -11043], [2171, -12225], [13856, 10427], [5795, -8252], [6351, 4690], [317, 11849], [4464, -1166], [-4292, 3141], [5216, 187], [-768, 12133], [4726, -1253], [-4480, 6095], [5233, -2396], [935, 11704], [14695, 15593], [-1622, 6602], [3717, -2331], [22901, 17948], [22793, 2930], [31513, 15057], [3512, -3733], [16011, 23015], [17870, 6422], [8691, 17268], [22799, 6603], [5845, 17897], [8141, -4757], [17301, 3865], [17778, 16797], [-3452, -5331], [6150, -1335], [2511, 3559], [-4641, 106], [12268, 7157], [4601, 10396], [5633, 303], [-8023, -13914], [4093, -4342], [9171, -3197], [7031, 8253], [13798, 376], [5462, 6206], [-1087, -10826], [17559, -3506], [217, -4333], [2013, 4476], [1193, -5014], [1341, 5377], [6223, -2663], [17333, 9345], [2558, -5170], [2412, 4887], [12930, -756], [7200, 12221], [9332, 147], [-3414, 7057], [24065, 14350], [1459, -6734], [14997, 7386], [1747, -4407], [19837, 7957], [1660, -6329], [5099, 2332], [-3156, 4781], [6769, -5630], [17957, 5656], [25446, 32697], [10736, -6435], [-3548, 6710], [29941, -4910], [9834, -7467], [13152, 8524], [2402, -3110], [3926, 7064], [43179, 4166], [43507, 14386], [48292, 23147], [39722, 44470], [14204, 25795], [-3504, 12962], [17490, 4913], [-6366, 8150], [8583, 12454], [13146, 1187], [42359, 32282], [781, 12663], [-20274, 1581], [3754, 10027], [-6770, 31338], [2803, 29676], [7841, 10600], [6737, -135], [-6579, 3910], [11316, 12221], [10330, 6134], [-3862, -4709], [5002, 204], [-83, 8676], [2773, -5978], [10421, -1089], [-7836, 12831], [4563, 7481], [5798, -3857], [14418, 5328], [6397, -4461], [-10377, 10863], [6831, 13810], [7412, 1505], [4107, 14080], [11360, 3025], [-2414, -4656], [6193, -3457], [-9370, -2479], [2504, -6330], [-5360, -5171], [4132, -6071], [4292, 1949], [1195, -6943], [8822, 231], [-3630, -9524], [5887, -3421], [-1230, -10679], [11425, -8712], [31700, -57236], [-1587, 17839], [8174, 22185], [-6268, 15070], [6443, 3352], [26452, -21212], [-11604, 20785], [16281, 15159], [-16314, -5942], [-8459, 15912], [-20873, 9389], [11234, 10449], [-8909, 992], [-1445, -5334], [-8306, 9889], [21448, -3117], [-6006, 3147], [7997, 748], [-15381, 11085], [15640, -5639], [3169, 2177], [-6798, 5810], [8767, -1564], [-16670, 8924], [6643, 2135], [-5994, 8406], [13673, 2664], [799, -3916], [168, 6158], [6747, -4191], [4405, -4906], [-7396, -4362], [12529, -6460], [516, -11918], [4592, 9485], [-3322, 4817], [10379, -6640], [-5401, 7271], [6650, 589], [-9017, 8154], [21453, -7014], [9827, -13801], [10224, 352], [-580, -5377], [7098, 2350], [2016, -9806], [5792, 4470], [-7942, 8333], [-5227, -360], [5096, 7321], [6174, -6529], [29619, 2093], [9510, -4434], [10715, 4099], [-13320, -2308], [-12098, 7169], [-29894, 619], [-1551, 12190], [6531, 15124], [6382, -14064], [5255, 8657], [8623, 2135], [-5883, -1141], [77, 13602], [5375, -1492], [-3479, 9710], [13374, 6904], [-3724, 7206], [-2896, -3453], [2940, 4368], [-7200, -3789], [-13419, -21911], [-3739, 19509], [-5192, -6087], [-2334, 14629], [5131, 609], [-6844, 3959], [7487, 214], [677, 6697], [5017, -3392], [-4675, 4481], [-4929, -2325], [1294, 6588], [9290, 2412], [-6405, 1885], [7188, 3754], [11051, -5693], [1696, 10097], [2847, -7339], [198, 9740], [6860, 3890], [-8279, 684], [4305, 10155], [6554, -4867], [-1732, -5236], [2998, 5996], [6356, -459], [87, -5412], [13118, -5643], [-2590, -7962], [6539, 1773], [-123, -7317], [7155, 8145], [33253, -23281], [-35115, 25578], [2082, 8526], [7324, 2441], [-7553, -713], [3036, 8209], [-4550, 169], [783, -6043], [-5058, 3956], [-13276, -6513], [2952, 11070], [7821, -1271], [5039, 7750], [-8589, 18], [-9437, -9766], [2060, 8847], [-6246, 1548], [19595, 4468], [-1789, 13012], [6232, 740], [-192, -8914], [5330, 2140], [3757, -10786], [11786, 5382], [5383, -6538], [14640, 812], [-12368, 4643], [12395, 10979], [-9566, -3397], [-12829, 8880], [-4393, -2606], [12026, 8850], [-8984, 4961], [-3404, -3318], [-6867, 11721], [16699, 9773], [-10419, -152], [15990, 14572], [-955, -7832], [5568, 3843], [1968, -9586], [9036, 14125], [1448, -6367], [6454, 128], [-311, 32531], [13385, -4366], [-7852, -10502], [3718, -11340], [-4182, -14879], [6201, 16162], [9718, 4226], [5303, -3066], [-2855, -11011], [10616, -5788], [-1615, 10573], [13035, 760], [-7426, 13634], [11176, 4209], [-3503, 9700], [7982, 2276], [3650, 8526], [-6530, 7044], [-11134, 753], [-924, 7840], [2631, -7562], [2803, 8390], [6443, -5930], [462, 6409], [-9603, 5102], [14718, 1069], [-4862, -11325], [10606, 6071], [-7152, -4741], [7317, -2794], [-6665, -3723], [6338, 367], [-2823, -9045], [6766, -7224], [10717, 4924], [-6323, 5110], [3675, 8880], [20267, 11559], [-8753, -14929], [7598, 207], [-2629, -4862], [7062, -951], [3189, -9603], [4318, 15873], [4899, -5763], [6890, 8463], [-5668, 7676], [19932, -1190], [-9980, 5476], [-3895, 15401], [7570, -4052], [900, 5877], [11197, 1654], [17959, -24058], [4785, 7825], [1702, -6958], [3896, 7317], [7142, -6074], [2927, 5458], [8267, -3637], [2244, -11583], [21734, -13177], [28278, -39549], [4041, 2987], [22866, -16507], [-2926, -11742], [-7394, -2268], [-2572, -41969], [-5242, -1175], [4900, -9753], [-9058, -12780], [11555, 9011], [1397, 24431], [12972, -12264], [8362, -19496], [-14762, 40777], [7144, 11093], [6573, -5282], [-1728, 10972], [4794, -14092], [-375, 7533], [5227, -4080], [-5217, 14704], [9041, -11702], [-2695, 12032], [9732, -13302], [-12556, 21031], [15703, 3651], [45079, -11154]], [[1528071, 2851082], [-474, -5338], [-7082, 3778], [-149, 11585], [7705, -10025]], [[1312568, 2932346], [-2914, -2524], [-3105, 6395], [6019, -3871]], [[1283584, 2920043], [-3922, -2600], [1021, 6747], [2901, -4147]], [[1230975, 2858078], [-5579, -5140], [-3058, 8031], [8637, -2891]], [[1229500, 2915573], [-184, -11154], [-10619, -3557], [-1197, 9660], [5547, -1956], [-3355, 7185], [4731, 5399], [5077, -5577]], [[1203817, 2862228], [-8086, 2451], [3879, 8225], [4207, -10676]], [[1193624, 2839523], [-6658, -3113], [1880, 5824], [4778, -2711]], [[1173362, 2825410], [-13011, -5105], [6641, 7936], [-11523, -3601], [-1469, 4974], [11018, 10992], [-1509, -6890], [9853, -8306]], [[1154031, 2835070], [-11858, -909], [9820, 6006], [2038, -5097]], [[1061012, 2739297], [-4145, -2630], [-4217, 6652], [8362, -4022]], [[396523, 2317090], [-7023, -3733], [6958, 9423], [65, -5690]], [[255580, 2291789], [-5619, -13015], [-9970, -2789], [11206, 22469], [4383, -6665]], [[31578, 1754711], [-2062, -5818], [-24890, 37925], [-4626, 19507], [4955, 10780], [5196, -1859], [13337, -38885], [-1933, -8961], [3138, 3416], [6885, -16105]], [[20711, 1859141], [-5218, -21322], [4231, 28108], [987, -6786]], [[3556077, 321651], [-13134, -5791], [-4062, 6610], [-22412, -3063], [-10225, 5461], [34623, 11199], [15210, -14416]], [[3183334, 258961], [-14712, 5304], [10422, 15045], [1403, 21665], [4029, -10189], [21337, 24], [14213, -9463], [4578, 1897], [-5673, 2471], [14856, -1147], [135, 9343], [6112, -13738], [11391, -4456], [7623, 4069], [32447, -20339], [41461, -13960], [474, 4475], [10144, -666], [3170, -7977], [-1875, 7077], [16208, 4905], [7490, -14094], [-4234, 11289], [20399, 6761], [5165, -5879], [-4945, -2762], [15251, -450], [-2565, -3278], [4828, -5765], [2895, 852], [-410, -5753], [10623, -3178], [4499, -10264], [3417, 2626], [-8238, 8719], [-9548, 2141], [3723, 3239], [-10340, 6441], [5343, 2192], [-6509, 5307], [-7254, 68], [-4119, 8218], [23430, 7386], [13699, -5113], [12195, 8970], [15470, -7020], [23514, 19087], [23447, -5664], [7055, 14006], [24806, -10843], [12670, -14686], [-9996, -5820], [4865, -1273], [-4528, -12711], [8548, -6902], [-10259, -6280], [12024, 4888], [-10673, -21215], [6738, -8935], [-5224, -23184], [8183, -41657], [-5323, -5806], [541, 15621], [-7735, 5680], [-6388, -537], [8612, 8590], [-8010, -966], [-7016, -8280], [14215, -1714], [-18853, -2051], [3721, -4950], [-15275, -17557], [8735, 2848], [-800, -19535], [-6151, -4287], [-2524, 5644], [-4865, -5799], [7147, -17323], [-15602, -17508], [-18456, 3386], [1565, 2472], [-3624, 6624], [-15075, 419], [4648, -5267], [3204, 1542], [10022, -3462], [-10974, -1834], [5045, -12136], [-3335, -3546], [-10190, -2939], [-2685, 7480], [3811, -5188], [3871, 86], [968, 4461], [-3242, 1758], [3295, 5822], [-7008, -3250], [-14633, 20861], [-587, -2682], [-5774, 3170], [-8444, -4779], [8377, 3267], [12379, -9165], [2217, -21959], [-7884, 3029], [-447, -20213], [-9322, -5987], [-8524, 12044], [-2059, -6215], [-7751, 3566], [4528, 13078], [-7972, -10518], [15016, -12638], [-11769, -3989], [7686, -2296], [-4168, -9039], [-9398, 2787], [7815, -6407], [-10120, -3656], [-2967, -12242], [-8578, 3835], [-7967, -3313], [-14608, 16853], [3668, -7860], [-30593, -117], [-7413, 5909], [-639, -4927], [-6162, 3335], [-11688, -6947], [-3374, 16401], [-7591, 2565], [7218, -1296], [-683, 6493], [9668, -4220], [-2519, 2703], [7223, -1097], [1394, -5320], [8712, 8620], [-6316, 3141], [-5658, -5734], [-4739, 5901], [-550, -4418], [-5520, -178], [-5036, 5428], [2654, 4626], [-6265, 2345], [-5481, -6167], [6414, -2746], [-8540, -1478], [-15900, 26480], [-9159, 7795], [-9576, -1901], [-12867, 33501], [-10326, 3489], [4146, 5041], [-13890, 37424], [28777, -20746], [-664, -3301], [2727, -8840], [-1588, 9106], [3392, 1253], [3911, -2728], [8714, 405], [-10515, 1098], [4456, 7748], [-6349, 3516], [-1327, -4261], [-14693, 21272], [-4424, -7554], [-6655, 859], [-1902, 28189], [-29289, 24559], [13935, 8992], [-12971, -6629], [-17497, 24610], [4400, 2637], [-13055, 33777], [9512, -447]], [[3541316, 344310], [-28817, -4117], [-3909, 14414], [-14800, 8197], [2099, 11608], [-13181, 3356], [9564, 3670], [414, 8639], [11546, 2360], [21380, -22499], [11389, -1306], [-6785, -15593], [6437, 4026], [4663, -12755]], [[3532731, 316366], [-4997, -10235], [-8514, 2525], [1781, 6277], [11730, 1433]], [[3524789, 100276], [-15544, -9319], [5383, 17121], [10161, -7802]], [[3509038, 42975], [-11487, 3069], [-3330, 8314], [1129, -9851], [-8901, -3161], [-10047, 9925], [5694, 4382], [-11496, 2139], [5176, 13897], [9495, -12039], [15116, 3905], [-11368, 5363], [5456, 1521], [-6297, 5381], [10490, -1552], [-1609, 6623], [10715, -7204], [-7243, -10666], [8507, -20046]], [[3428168, 21445], [-5627, -5980], [-4939, 8442], [8274, -4593], [-78, 10574], [5538, -1150], [5638, 12227], [1495, -5523], [5207, 4122], [2108, 7975], [-10295, 950], [7990, 2579], [-466, 7682], [8202, -16760], [-11099, -7250], [5666, -8626], [-8422, -12587], [-9192, 7918]], [[3200797, 302904], [-157, 4501], [986, -7239], [13050, -6459], [-17414, -2611], [3535, 11808]], [[3204876, 322520], [-7324, -5762], [-6187, 4080], [5238, 5438], [8273, -3756]], [[3187160, 323388], [-3519, -18843], [-4688, 12150], [8207, 6693]], [[3121710, 371762], [-3276, -11056], [-17974, -11359], [-9242, 24242], [1094, 19998], [10151, 13510], [16391, -8951], [2856, -26384]], [[2507793, 1765457], [-899847, -175], [66, 1111914]], [[1608012, 2877196], [10005, -3559], [713, -7417], [2227, 4026], [5823, -3820], [-3073, -21043], [4141, 5092], [3160, -2925], [529, 10815], [6513, 3125], [-6813, 2824], [-506, 16892], [25405, -10168], [12142, -16695], [-4032, -7191], [12140, 3725], [-18528, 35256], [9241, -10090], [-1457, 9271], [22500, -5972], [10029, 8480], [-13385, -5481], [4107, 6771], [-13765, -315], [-8878, 14723], [10876, 345], [7917, 7408], [-10221, -4178], [-14307, 2820], [-321, 8673], [-4039, -3539], [-2868, 5456], [-81, -5867], [-9642, 8143], [1025, 8553], [14502, 21105], [-3305, 7912], [5661, -1043], [2112, -8380], [4138, 13109], [4278, -3613], [10517, 7206], [-3052, 9626], [7931, 8936], [2249, 28776], [6798, -147], [1213, 6282], [1246, -7393], [9848, -1900], [26954, 19847], [-16174, 17073], [1202, 19044], [4760, 6342], [7133, -3810], [9112, 5826], [1379, 21978], [5208, -3114], [5677, 6230], [7012, -10299], [2627, 4017], [6770, -6741], [-352, 6420], [6769, -4629], [4962, 4095], [-19310, 7624], [9846, 1050], [-7733, 4228], [5645, 13376], [-4508, 4117], [18699, -3078], [-3312, -15956], [4653, 3779], [1329, -6276], [1831, 8201], [8857, -12259], [-1644, 5628], [8456, -2358], [-10764, 12319], [9464, -4854], [-712, 8409], [-12562, 916], [-473, 5476], [7962, 7707], [15904, -1773], [-6042, 16173], [3598, 3962], [13845, -2678], [5595, -11182], [7212, 24243], [2564, -15082], [10401, -8199], [25605, -933], [19644, 7019], [19045, -8898], [16848, 13377], [15120, -6665], [5262, 8994], [18727, 6106], [2604, 19560], [-7462, 10381], [7400, 10036], [-6002, -4440], [-9484, 4793], [753, 4639], [10927, -1906], [-12249, 17228], [-25535, 2730], [-12497, -8472], [-7995, 5779], [2548, 4999], [-11693, 3225], [4658, 2655], [-7211, 1584], [2664, 3764], [-18088, 411], [9253, 3901], [-4039, 6504], [6456, -2322], [312, 5339], [7873, -7152], [3176, 12881], [12057, -8689], [-1356, -11792], [3680, 3289], [3358, -12426], [6611, 8053], [-6390, 1645], [2990, 9663], [-6686, 10443], [14794, -15434], [-1848, 10133], [6822, 5967], [4040, -17973], [7734, 7738], [21797, -29751], [6387, -349], [10932, 12394], [5421, -3076], [-3138, 8583], [5293, 834], [27270, -39691], [15271, 3492], [-2247, -7613], [8194, 3776], [5627, -6989], [7468, 4164], [-366, -5265], [8096, -2980], [18282, 11811], [12166, -1777], [2478, -2791], [-11073, -9464], [7810, -6263], [12306, 7266], [4406, -8685], [5232, 4454], [6709, -13140], [-2583, -8609], [7737, 13002], [24512, -9249], [25669, 12789], [10922, -18169], [11478, -2735], [8444, -10522], [8864, 2687], [6838, -5856], [-5147, 7029], [18091, -2137], [-11917, 5769], [14289, 10397], [8816, -2934], [6467, 5425], [5097, -4094], [33988, 14835], [-25789, -24931], [5837, -11086], [33539, 24948], [-11772, -15901], [2201, -5695], [11115, 3816], [-9031, -14588], [5048, -9939], [4233, 5614], [19600, -2642], [9944, 22606], [-19173, 6735], [39554, 28642], [1745, -3892], [-13145, -7193], [4005, -5263], [4207, 4865], [11643, -27828], [9477, -211], [989, 5768], [-7080, 2781], [10100, 2724], [12273, -8686], [1603, -9829], [5780, -120], [-20619, -21008], [2170, 10577], [-7349, -848], [2745, -7568], [-7913, -5665], [9262, 1316], [-7131, -5487], [328, -7882], [-7643, 2125], [433, -14961], [-7193, 9908], [-697, -6638], [-7914, 3471], [20426, -23227], [-21276, 2608], [11150, -8060], [-9893, -18871], [-2813, 3016], [-10829, -10732], [-322, 7468], [5993, 2296], [-5465, 19292], [-1779, -12548], [-9759, 2136], [2712, -7420], [-8322, -2962], [1969, -3871], [-4746, 7350], [1098, 8675], [-9794, -18930], [-3511, 9494], [-4848, -7988], [-4497, 2636], [-3868, -9464], [9301, -3926], [-4174, -6449], [-7152, 2658], [-2444, -15059], [8636, -8515], [-4225, -3606], [7685, -3132], [12681, 8790], [-17331, -33498], [-615, -20008], [-20106, -8085], [-3221, -15301], [-5071, 127], [-8300, -13803], [444, -9158], [-15898, -7302], [2886, -14740], [16902, -17217], [65976, -37078], [7778, -20990], [9458, -17], [14339, -12424], [8861, 7795], [8006, -2390], [-8134, -7278], [6359, -16210], [6511, 4178], [18175, -4889], [-4054, 3865], [6528, 4873], [39462, -28239], [35707, -9891], [27151, -31225]], [[2418500, 2787890], [-3187, -7373], [-9588, 13384], [-4857, -1404], [6157, 14200], [7573, -4431], [3902, -14376]], [[2404300, 2948618], [45, -11735], [-6020, -2790], [-14891, 5245], [-10557, -3816], [-21254, 9992], [-11265, -4982], [11791, 12264], [-3338, 29250], [8640, -986], [3626, 5581], [3430, -4492], [7182, 4639], [-6023, 9615], [5434, -3316], [9643, 6841], [-4748, -8727], [5428, -3153], [-1000, -7132], [11197, -63], [-4, 4047], [-4028, -3175], [4353, 8900], [8387, -6134], [-6660, -10631], [-7889, -2118], [2865, -10184], [-8697, -3406], [-1351, -9907], [7835, -2413], [1491, 4615], [6544, -6381], [4552, 7316], [5282, -2764]], [[2398377, 2806288], [-5941, -5864], [2177, 13967], [3764, -8103]], [[2391520, 2796484], [-10415, -7143], [325, 11136], [10090, -3993]], [[2384505, 3262293], [-8215, -22025], [-20013, -20779], [28228, 42804]], [[2369621, 2809607], [-2764, -8995], [-9494, 177], [3058, 11260], [9200, -2442]], [[2362053, 2988004], [-7052, 5084], [5980, 1709], [1072, -6793]], [[2345596, 3206795], [-21755, -10952], [10558, 12044], [11197, -1092]], [[2322601, 3159757], [16593, 7977], [-11838, -10251], [-4755, 2274]], [[2338065, 2991701], [-4790, -1328], [-601, -10232], [-4847, -379], [-1374, 8564], [-1741, -6643], [-6259, 1876], [727, 8458], [6072, -1706], [2597, 8304], [10216, -6914]], [[2328479, 3019669], [-6379, -1557], [-160, -9387], [-4793, 20591], [11332, -9647]], [[2313490, 3199836], [-6264, -6617], [-4321, 2320], [10585, 4297]], [[2281420, 3171481], [16484, 12842], [-2368, 5258], [5171, -1938], [-13057, -18968], [-23300, -10508], [2952, 11900], [14118, 1414]], [[2284704, 2877624], [-8125, -2858], [3897, 6901], [4228, -4043]], [[2200813, 3156077], [-6019, -3528], [-2145, 8301], [8164, -4773]], [[2057223, 3214024], [-11026, -3193], [8350, 7881], [2676, -4688]], [[2056060, 3203557], [-12296, -4905], [5064, 8052], [7232, -3147]], [[1966590, 3266423], [-703, -17284], [5128, -2615], [-4330, -16962], [-11816, 19888], [4349, 6444], [-5089, 5994], [8283, -1994], [4178, 6529]], [[1922821, 3204515], [-3823, -1424], [1084, 5571], [2739, -4147]], [[1748123, 3228803], [-3885, 11220], [3815, 8507], [9463, -11245], [9856, -1063], [-2655, -10840], [8828, 6166], [4930, -17768], [1691, 4335], [10119, -6808], [-11941, 15305], [19275, 7640], [13429, -5838], [11614, 11742], [6159, -9419], [-532, 10802], [7312, 4652], [2797, -8506], [13072, 868], [2065, -15366], [4376, 3596], [4290, -6859], [-7816, -4566], [483, -11024], [-10070, 2715], [-8871, -15884], [-33111, -20031], [-45666, 28517], [-9027, 29152]], [[1729156, 3193925], [2455, -3444], [-1423, 7621], [8292, -6260], [-4038, 7128], [-7426, 1906], [-1645, 8483], [5016, 5063], [3650, -6383], [2181, 3119], [-5243, 5512], [-8289, 267], [18945, 16345], [13091, -34756], [17277, -9067], [-3745, -7024], [-29140, 5619], [-18145, -5429], [-10702, 2786], [5696, 2852], [-425, 9971], [8075, -3597], [4506, 5563], [1037, -6275]], [[1762321, 3094696], [-5769, 8082], [3066, 6606], [2703, -14688]], [[1715388, 3048020], [-5457, -858], [-196, 6860], [5653, -6002]]], "transform": {"scale": [9.999999133904813e-06, 9.999999709490988e-06], "translate": [112.92112399999999, -43.651435]}, "objects": {"states": {"type": "GeometryCollection", "geometries": [{"arcs": [[[0]], [[1, 2, 3, 4, 5, 6, 7, 8, 9, 10, 11, 12, 13, 14, 15, 16, 17, 18, 19, 20, 21, 22, 23, 24, 25, 26, 27, 28, 29, 30, 31, 32, 33, 34, 35, 36, 37, 38, 39, 40, 41, 42, 43, 44, 45, 46], [47], [48], [49]]], "type": "MultiPolygon", "properties": {"STATE_CODE": "1", "STATE_NAME": "New South Wales", "billionaires": 15}, "id": 0}, {"arcs": [[[50, 51, 52, -39, 53, -37, 54, -35, 55, -33, 56, -31, 57, -29, 58, -27, 59, 60, -24, 61, -22, 62, 63, 64, -18, 65, -16, 66, -14, 67, -12, 68, -10, 69, -8, 70, -6, 71, 72, 73, -2, 74]], [[75]], [[76]], [[77]]], "type": "MultiPolygon", "properties": {"STATE_CODE": "2", "STATE_NAME": "Victoria", "billionaires": 2}, "id": 1}, {"arcs": [[[-46, 78, -44, 79, -42, 80, 81, 82, 83]], [[84]], [[85]], [[86]], [[87]], [[88]], [[89]], [[90]], [[91]], [[92]], [[93]], [[94]], [[95]], [[96]], [[97]], [[98]], [[99]], [[100]], [[101]], [[102]], [[103]], [[104]], [[105]], [[106]], [[107]], [[108]]], "type": "MultiPolygon", "properties": {"STATE_CODE": "3", "STATE_NAME": "Queensland", "billionaires": 0}, "id": 2}, {"arcs": [[[109, 110, -51, 111]], [[112]], [[113]], [[114]]], "type": "MultiPolygon", "properties": {"STATE_CODE": "4", "STATE_NAME": "South Australia", "billionaires": 0}, "id": 3}, {"arcs": [[[115, 116]], [[117]], [[118]], [[119]], [[120]], [[121]], [[122]], [[123]], [[124]], [[125]], [[126]], [[127]], [[128]], [[129]], [[130]]], "type": "MultiPolygon", "properties": {"STATE_CODE": "5", "STATE_NAME": "Western Australia", "billionaires": 3}, "id": 4}, {"arcs": [[[131]], [[132]], [[133]], [[134]], [[135]], [[136]], [[137]], [[138]], [[139]], [[140]], [[141]]], "type": "MultiPolygon", "properties": {"STATE_CODE": "6", "STATE_NAME": "Tasmania", "billionaires": 0}, "id": 5}, {"arcs": [[[-83, 142, 143]], [[144]], [[145]], [[146]], [[147]], [[148]], [[149]], [[150]], [[151]], [[152]], [[153]], [[154]], [[155]], [[156]], [[157]], [[158]], [[159]], [[160]], [[161]], [[162]], [[163]], [[164]], [[165]], [[166]]], "type": "MultiPolygon", "properties": {"STATE_CODE": "7", "STATE_NAME": "Northern Territory", "billionaires": 0}, "id": 6}, {"arcs": [[-50]], "type": "Polygon", "properties": {"STATE_CODE": "8", "STATE_NAME": "Australian Capital Territory", "billionaires": 0}, "id": 7}]}}}